[{"OBJECT_NAME":"STARLINK-11616 [DTC]","OBJECT_ID":"2025-043F","EPOCH":"2026-03-09T13:10:30.244224","MEAN_MOTION":15.70868788,"ECCENTRICITY":0.00030443,"INCLINATION":42.9994,"RA_OF_ASC_NODE":251.2374,"ARG_OF_PERICENTER":319.2082,"MEAN_ANOMALY":40.8558,"EPHEMERIS_TYPE":0,"CLASSIFICATION_TYPE":"U","NORAD_CAT_ID":63137,"ELEMENT_SET_NO":999,"REV_AT_EPOCH":5945,"BSTAR":0.0015142258,"MEAN_MOTION_DOT":0.00198825,"MEAN_MOTION_DDOT":0},{"OBJECT_NAME":"SILVERSAT","OBJECT_ID":"1998-067XV","EPOCH":"2026-03-09T06:21:04.624704","MEAN_MOTION":15.72057374,"ECCENTRICITY":0.00055278,"INCLINATION":51.6252,"RA_OF_ASC_NODE":67.052,"ARG_OF_PERICENTER":73.9744,"MEAN_ANOMALY":286.1863,"EPHEMERIS_TYPE":0,"CLASSIFICATION_TYPE":"U","NORAD_CAT_ID":66909,"ELEMENT_SET_NO":999,"REV_AT_EPOCH":1512,"BSTAR":0.0015444738,"MEAN_MOTION_DOT":0.00211631,"MEAN_MOTION_DDOT":0}]
