STARLINK-11616 [DTC]    
1 63137U 25043F   26068.54896116  .00198825  00000+0  15142-2 0  9993
2 63137  42.9994 251.2374 0003044 319.2082  40.8558 15.70868788 59450
SILVERSAT               
1 66909U 98067XV  26068.26463686  .00211631  00000+0  15445-2 0  9997
2 66909  51.6252  67.0520 0005527  73.9744 286.1863 15.72057374 15120
